{"type": "FeatureCollection", "features": [ {"type": "Feature", "properties": {"norad_id": 36437, "name": "COSMOS 2251 DEB", "group": "cosmos-2251-debris", "lat": -36.911517323251964, "lon": 25.088005411586078, "alt_km": 655.2335215997564, "timestamp": "2025-12-10T21:43:22.488368+00:00", "meta": {"OBJECT_NAME": "COSMOS 2251 DEB", "OBJECT_ID": "1993-036BAL", "EPOCH": "2025-12-08T11:07:20.893728", "MEAN_MOTION": 14.70572435, "ECCENTRICITY": 0.00231803, "INCLINATION": 73.9425, "RA_OF_ASC_NODE": 42.3459, "ARG_OF_PERICENTER": 273.747, "MEAN_ANOMALY": 86.105, "EPHEMERIS_TYPE": 0, "CLASSIFICATION_TYPE": "U", "NORAD_CAT_ID": 36437, "ELEMENT_SET_NO": 999, "REV_AT_EPOCH": 65988, "BSTAR": 0.0019147355, "MEAN_MOTION_DOT": 0.0001167, "MEAN_MOTION_DDOT": 0}, "tle": {"line1": "1 36437U 93036BAL 25342.46343627  .00011670  00000+0  19147-2 0  9993", "line2": "2 36437  73.9425  42.3459 0023180 273.7470  86.1050 14.70572435659880"}}, "geometry": {"type": "Point", "coordinates": [25.088005411586078, -36.911517323251964]}}, {"type": "Feature", "properties": {"norad_id": 36439, "name": "COSMOS 2251 DEB", "group": "cosmos-2251-debris", "lat": -21.840835164795358, "lon": 33.02729724456873, "alt_km": 818.3980431859545, "timestamp": "2025-12-10T21:43:22.488378+00:00", "meta": {"OBJECT_NAME": "COSMOS 2251 DEB", "OBJECT_ID": "1993-036BAN", "EPOCH": "2025-12-09T11:58:56.463168", "MEAN_MOTION": 13.47786421, "ECCENTRICITY": 0.04275897, "INCLINATION": 73.9683, "RA_OF_ASC_NODE": 41.8872, "ARG_OF_PERICENTER": 14.4212, "MEAN_ANOMALY": 346.8655, "EPHEMERIS_TYPE": 0, "CLASSIFICATION_TYPE": "U", "NORAD_CAT_ID": 36439, "ELEMENT_SET_NO": 999, "REV_AT_EPOCH": 58569, "BSTAR": 0.0014152778, "MEAN_MOTION_DOT": 1.503e-05, "MEAN_MOTION_DDOT": 0}, "tle": {"line1": "1 36439U 93036BAN 25343.49926462  .00001503  00000+0  14153-2 0  9999", "line2": "2 36439  73.9683  41.8872 0427589  14.4212 346.8655 13.47786421585695"}}, "geometry": {"type": "Point", "coordinates": [33.02729724456873, -21.840835164795358]}}, {"type": "Feature", "properties": {"norad_id": 36441, "name": "COSMOS 2251 DEB", "group": "cosmos-2251-debris", "lat": -5.0864157861484065, "lon": 175.05440437313652, "alt_km": 550.892063012162, "timestamp": "2025-12-10T21:43:22.488388+00:00", "meta": {"OBJECT_NAME": "COSMOS 2251 DEB", "OBJECT_ID": "1993-036BAQ", "EPOCH": "2025-12-04T18:18:25.005024", "MEAN_MOTION": 15.06603971, "ECCENTRICITY": 0.01084902, "INCLINATION": 73.8352, "RA_OF_ASC_NODE": 6.3404, "ARG_OF_PERICENTER": 107.4279, "MEAN_ANOMALY": 253.8807, "EPHEMERIS_TYPE": 0, "CLASSIFICATION_TYPE": "U", "NORAD_CAT_ID": 36441, "ELEMENT_SET_NO": 999, "REV_AT_EPOCH": 86845, "BSTAR": 0.00090032635, "MEAN_MOTION_DOT": 0.00015248, "MEAN_MOTION_DDOT": 0}, "tle": {"line1": "1 36441U 93036BAQ 25338.76278941  .00015248  00000+0  90033-3 0  9991", "line2": "2 36441  73.8352   6.3404 0108490 107.4279 253.8807 15.06603971868459"}}, "geometry": {"type": "Point", "coordinates": [175.05440437313652, -5.0864157861484065]}}, {"type": "Feature", "properties": {"norad_id": 36442, "name": "COSMOS 2251 DEB", "group": "cosmos-2251-debris", "lat": 1.7109614741834032, "lon": -137.30584564144257, "alt_km": 487.23121308217287, "timestamp": "2025-12-10T21:43:22.488400+00:00", "meta": {"OBJECT_NAME": "COSMOS 2251 DEB", "OBJECT_ID": "1993-036BAR", "EPOCH": "2025-12-08T10:48:39.469248", "MEAN_MOTION": 15.27762018, "ECCENTRICITY": 0.00088131, "INCLINATION": 73.9528, "RA_OF_ASC_NODE": 48.4206, "ARG_OF_PERICENTER": 323.6974, "MEAN_ANOMALY": 36.3628, "EPHEMERIS_TYPE": 0, "CLASSIFICATION_TYPE": "U", "NORAD_CAT_ID": 36442, "ELEMENT_SET_NO": 999, "REV_AT_EPOCH": 85850, "BSTAR": 0.005804433, "MEAN_MOTION_DOT": 0.00161056, "MEAN_MOTION_DDOT": 0}, "tle": {"line1": "1 36442U 93036BAR 25342.45045682  .00161056  00000+0  58044-2 0  9991", "line2": "2 36442  73.9528  48.4206 0008813 323.6974  36.3628 15.27762018858506"}}, "geometry": {"type": "Point", "coordinates": [-137.30584564144257, 1.7109614741834032]}}, {"type": "Feature", "properties": {"norad_id": 36451, "name": "COSMOS 2251 DEB", "group": "cosmos-2251-debris", "lat": 62.30122860164637, "lon": 11.762054637694929, "alt_km": 835.2127570757975, "timestamp": "2025-12-10T21:43:22.488411+00:00", "meta": {"OBJECT_NAME": "COSMOS 2251 DEB", "OBJECT_ID": "1993-036BBA", "EPOCH": "2025-12-08T10:10:07.447584", "MEAN_MOTION": 14.18724413, "ECCENTRICITY": 0.01840749, "INCLINATION": 73.9539, "RA_OF_ASC_NODE": 342.9701, "ARG_OF_PERICENTER": 168.3937, "MEAN_ANOMALY": 192.1542, "EPHEMERIS_TYPE": 0, "CLASSIFICATION_TYPE": "U", "NORAD_CAT_ID": 36451, "ELEMENT_SET_NO": 999, "REV_AT_EPOCH": 84164, "BSTAR": 0.0010726423, "MEAN_MOTION_DOT": 2.61e-05, "MEAN_MOTION_DDOT": 0}, "tle": {"line1": "1 36451U 93036BBA 25342.42369731  .00002610  00000+0  10726-2 0  9997", "line2": "2 36451  73.9539 342.9701 0184074 168.3937 192.1542 14.18724413841646"}}, "geometry": {"type": "Point", "coordinates": [11.762054637694929, 62.30122860164637]}}, {"type": "Feature", "properties": {"norad_id": 36453, "name": "COSMOS 2251 DEB", "group": "cosmos-2251-debris", "lat": 70.88744256569748, "lon": -80.45422053566475, "alt_km": 672.0410214246522, "timestamp": "2025-12-10T21:43:22.488421+00:00", "meta": {"OBJECT_NAME": "COSMOS 2251 DEB", "OBJECT_ID": "1993-036BBC", "EPOCH": "2025-12-09T20:46:48.254592", "MEAN_MOTION": 14.52574246, "ECCENTRICITY": 0.00703506, "INCLINATION": 73.9234, "RA_OF_ASC_NODE": 157.8445, "ARG_OF_PERICENTER": 61.8846, "MEAN_ANOMALY": 5.5104, "EPHEMERIS_TYPE": 0, "CLASSIFICATION_TYPE": "U", "NORAD_CAT_ID": 36453, "ELEMENT_SET_NO": 999, "REV_AT_EPOCH": 84426, "BSTAR": 0.0013927776, "MEAN_MOTION_DOT": 5.859e-05, "MEAN_MOTION_DDOT": 0}, "tle": {"line1": "1 36453U 93036BBC 25343.86583628  .00005859  00000+0  13928-2 0  9996", "line2": "2 36453  73.9234 157.8445 0070350  61.8846   5.5104 14.52574246844262"}}, "geometry": {"type": "Point", "coordinates": [-80.45422053566475, 70.88744256569748]}}, {"type": "Feature", "properties": {"norad_id": 36459, "name": "COSMOS 2251 DEB", "group": "cosmos-2251-debris", "lat": -12.115763525451914, "lon": -173.3675248891099, "alt_km": 811.2458623325001, "timestamp": "2025-12-10T21:43:22.488431+00:00", "meta": {"OBJECT_NAME": "COSMOS 2251 DEB", "OBJECT_ID": "1993-036BBJ", "EPOCH": "2025-12-08T08:14:17.711520", "MEAN_MOTION": 14.26367403, "ECCENTRICITY": 0.01135417, "INCLINATION": 74.048, "RA_OF_ASC_NODE": 7.7381, "ARG_OF_PERICENTER": 104.7075, "MEAN_ANOMALY": 256.669, "EPHEMERIS_TYPE": 0, "CLASSIFICATION_TYPE": "U", "NORAD_CAT_ID": 36459, "ELEMENT_SET_NO": 999, "REV_AT_EPOCH": 7819, "BSTAR": 0.0018203568, "MEAN_MOTION_DOT": 4.661e-05, "MEAN_MOTION_DDOT": 0}, "tle": {"line1": "1 36459U 93036BBJ 25342.34326055  .00004661  00000+0  18204-2 0  9995", "line2": "2 36459  74.0480   7.7381 0113541 104.7075 256.6690 14.26367403 78192"}}, "geometry": {"type": "Point", "coordinates": [-173.3675248891099, -12.115763525451914]}}, {"type": "Feature", "properties": {"norad_id": 36470, "name": "COSMOS 2251 DEB", "group": "cosmos-2251-debris", "lat": 56.299192720114206, "lon": -76.01635010844075, "alt_km": 525.1754089749584, "timestamp": "2025-12-10T21:43:22.488441+00:00", "meta": {"OBJECT_NAME": "COSMOS 2251 DEB", "OBJECT_ID": "1993-036BBV", "EPOCH": "2025-12-10T11:53:54.773376", "MEAN_MOTION": 15.06931593, "ECCENTRICITY": 0.00233389, "INCLINATION": 73.8446, "RA_OF_ASC_NODE": 259.0712, "ARG_OF_PERICENTER": 87.422, "MEAN_ANOMALY": 272.9641, "EPHEMERIS_TYPE": 0, "CLASSIFICATION_TYPE": "U", "NORAD_CAT_ID": 36470, "ELEMENT_SET_NO": 999, "REV_AT_EPOCH": 66060, "BSTAR": 0.005318361, "MEAN_MOTION_DOT": 0.00080867, "MEAN_MOTION_DDOT": 0}, "tle": {"line1": "1 36470U 93036BBV 25344.49577284  .00080867  00000+0  53184-2 0  9996", "line2": "2 36470  73.8446 259.0712 0023338  87.4220 272.9641 15.06931593660603"}}, "geometry": {"type": "Point", "coordinates": [-76.01635010844075, 56.299192720114206]}}, {"type": "Feature", "properties": {"norad_id": 36528, "name": "COSMOS 2251 DEB", "group": "cosmos-2251-debris", "lat": -72.33886491641498, "lon": 84.37227966616591, "alt_km": 784.6661329154294, "timestamp": "2025-12-10T21:43:22.488453+00:00", "meta": {"OBJECT_NAME": "COSMOS 2251 DEB", "OBJECT_ID": "1993-036BCN", "EPOCH": "2025-12-07T18:35:16.209888", "MEAN_MOTION": 14.3059773, "ECCENTRICITY": 0.00852102, "INCLINATION": 74.0157, "RA_OF_ASC_NODE": 154.2656, "ARG_OF_PERICENTER": 204.8135, "MEAN_ANOMALY": 154.8907, "EPHEMERIS_TYPE": 0, "CLASSIFICATION_TYPE": "U", "NORAD_CAT_ID": 36528, "ELEMENT_SET_NO": 999, "REV_AT_EPOCH": 64356, "BSTAR": 0.0018462235, "MEAN_MOTION_DOT": 4.991e-05, "MEAN_MOTION_DDOT": 0}, "tle": {"line1": "1 36528U 93036BCN 25341.77449317  .00004991  00000+0  18462-2 0  9997", "line2": "2 36528  74.0157 154.2656 0085210 204.8135 154.8907 14.30597730643565"}}, "geometry": {"type": "Point", "coordinates": [84.37227966616591, -72.33886491641498]}}, {"type": "Feature", "properties": {"norad_id": 36533, "name": "COSMOS 2251 DEB", "group": "cosmos-2251-debris", "lat": -48.974312059277494, "lon": 99.03527453612908, "alt_km": 706.2088036284722, "timestamp": "2025-12-10T21:43:22.488463+00:00", "meta": {"OBJECT_NAME": "COSMOS 2251 DEB", "OBJECT_ID": "1993-036BCT", "EPOCH": "2025-12-10T08:42:41.261184", "MEAN_MOTION": 14.49801207, "ECCENTRICITY": 0.00491978, "INCLINATION": 74.011, "RA_OF_ASC_NODE": 119.2951, "ARG_OF_PERICENTER": 268.8603, "MEAN_ANOMALY": 90.692, "EPHEMERIS_TYPE": 0, "CLASSIFICATION_TYPE": "U", "NORAD_CAT_ID": 36533, "ELEMENT_SET_NO": 999, "REV_AT_EPOCH": 84450, "BSTAR": 0.00079270192, "MEAN_MOTION_DOT": 3.077e-05, "MEAN_MOTION_DDOT": 0}, "tle": {"line1": "1 36533U 93036BCT 25344.36297756  .00003077  00000+0  79270-3 0  9998", "line2": "2 36533  74.0110 119.2951 0049197 268.8603  90.6920 14.49801207844509"}}, "geometry": {"type": "Point", "coordinates": [99.03527453612908, -48.974312059277494]}}]}